<?xml version="1.0" encoding="UTF-8"?>
<gpx version="1.1" creator="solo-twin" xmlns="http://www.topografix.com/GPX/1/1">
<metadata><name>20HC Around Prudence (Fall)</name><desc>Start=Finish R14 Quonset. Long courses II/IV omitted (need chart-only NE-Conanicut mark).</desc></metadata>
<wpt lat="41.58158" lon="-71.39701"><name>G7 Quonset Channel</name><sym>Buoy</sym></wpt>
<wpt lat="41.57638" lon="-71.32781"><name>RGN PI Prudence Southend</name><sym>Buoy</sym></wpt>
<wpt lat="41.61540" lon="-71.29321"><name>RG SP Sandy Point jct</name><sym>Buoy</sym></wpt>
<wpt lat="41.67589" lon="-71.34757"><name>RGN Fork Rock (Providence Pt)</name><sym>Buoy</sym></wpt>
<wpt lat="41.66094" lon="-71.37280"><name>R8 Patience Island</name><sym>Buoy</sym></wpt>
<wpt lat="41.61041" lon="-71.39482"><name>R14 Quonset/Davisville</name><sym>Buoy</sym></wpt>
<rte><name>I - Short CCW 17.4 NM</name>
<rtept lat="41.61041" lon="-71.39482"><name>R14 Quonset/Davisville</name></rtept>
<rtept lat="41.58158" lon="-71.39701"><name>G7 Quonset Channel</name></rtept>
<rtept lat="41.57638" lon="-71.32781"><name>RGN PI Prudence Southend</name></rtept>
<rtept lat="41.61540" lon="-71.29321"><name>RG SP Sandy Point jct</name></rtept>
<rtept lat="41.67589" lon="-71.34757"><name>RGN Fork Rock (Providence Pt)</name></rtept>
<rtept lat="41.66094" lon="-71.37280"><name>R8 Patience Island</name></rtept>
<rtept lat="41.61041" lon="-71.39482"><name>R14 Quonset/Davisville</name></rtept>
</rte>
<rte><name>III - Short CW 17.4 NM</name>
<rtept lat="41.61041" lon="-71.39482"><name>R14 Quonset/Davisville</name></rtept>
<rtept lat="41.66094" lon="-71.37280"><name>R8 Patience Island</name></rtept>
<rtept lat="41.67589" lon="-71.34757"><name>RGN Fork Rock (Providence Pt)</name></rtept>
<rtept lat="41.61540" lon="-71.29321"><name>RG SP Sandy Point jct</name></rtept>
<rtept lat="41.57638" lon="-71.32781"><name>RGN PI Prudence Southend</name></rtept>
<rtept lat="41.58158" lon="-71.39701"><name>G7 Quonset Channel</name></rtept>
<rtept lat="41.61041" lon="-71.39482"><name>R14 Quonset/Davisville</name></rtept>
</rte>
</gpx>