<?xml version="1.0" encoding="UTF-8"?>
<gpx version="1.1" creator="solo-twin" xmlns="http://www.topografix.com/GPX/1/1">
<metadata><name>20HC Bridge Fiasco</name><desc>Pass under each named bridge center span in any order. Start=Finish RGN PI. Bridge points chart-approx.</desc></metadata>
<wpt lat="41.50390" lon="-71.41810"><name>Jamestown Verrazzano Br center</name><sym>Buoy</sym></wpt>
<wpt lat="41.50440" lon="-71.34940"><name>Newport (Pell) Bridge center</name><sym>Buoy</sym></wpt>
<wpt lat="41.64070" lon="-71.25540"><name>Mount Hope Bridge center</name><sym>Buoy</sym></wpt>
<wpt lat="41.57638" lon="-71.32781"><name>RGN PI Prudence Southend</name><sym>Buoy</sym></wpt>
<rte><name>A - all 3 bridges 27.8 NM</name>
<rtept lat="41.57638" lon="-71.32781"><name>RGN PI Prudence Southend</name></rtept>
<rtept lat="41.50390" lon="-71.41810"><name>Jamestown Verrazzano Br center</name></rtept>
<rtept lat="41.50440" lon="-71.34940"><name>Newport (Pell) Bridge center</name></rtept>
<rtept lat="41.64070" lon="-71.25540"><name>Mount Hope Bridge center</name></rtept>
<rtept lat="41.57638" lon="-71.32781"><name>RGN PI Prudence Southend</name></rtept>
</rte>
<rte><name>B - Jamestown+Newport 17.8 NM</name>
<rtept lat="41.57638" lon="-71.32781"><name>RGN PI Prudence Southend</name></rtept>
<rtept lat="41.50390" lon="-71.41810"><name>Jamestown Verrazzano Br center</name></rtept>
<rtept lat="41.50440" lon="-71.34940"><name>Newport (Pell) Bridge center</name></rtept>
<rtept lat="41.57638" lon="-71.32781"><name>RGN PI Prudence Southend</name></rtept>
</rte>
<rte><name>C - Jamestown+Mt Hope 21.2 NM</name>
<rtept lat="41.57638" lon="-71.32781"><name>RGN PI Prudence Southend</name></rtept>
<rtept lat="41.50390" lon="-71.41810"><name>Jamestown Verrazzano Br center</name></rtept>
<rtept lat="41.64070" lon="-71.25540"><name>Mount Hope Bridge center</name></rtept>
<rtept lat="41.57638" lon="-71.32781"><name>RGN PI Prudence Southend</name></rtept>
</rte>
<rte><name>D - Newport+Mt Hope 18.6 NM</name>
<rtept lat="41.57638" lon="-71.32781"><name>RGN PI Prudence Southend</name></rtept>
<rtept lat="41.50440" lon="-71.34940"><name>Newport (Pell) Bridge center</name></rtept>
<rtept lat="41.64070" lon="-71.25540"><name>Mount Hope Bridge center</name></rtept>
<rtept lat="41.57638" lon="-71.32781"><name>RGN PI Prudence Southend</name></rtept>
</rte>
</gpx>